{
    "links": {
        "self": "http://www.neowsapp.com/rest/v1/neo/54051285?api_key=iIulBulltgU6a56xZRHN4H3l9WmuAYTsLGpBGhQ2"
    },
    "id": "54051285",
    "neo_reference_id": "54051285",
    "name": "(2020 QP2)",
    "designation": "2020 QP2",
    "nasa_jpl_url": "http://ssd.jpl.nasa.gov/sbdb.cgi?sstr=54051285",
    "absolute_magnitude_h": 26.638,
    "estimated_diameter": {
        "kilometers": {
            "estimated_diameter_min": 0.0125012942,
            "estimated_diameter_max": 0.0279537437
        },
        "meters": {
            "estimated_diameter_min": 12.5012942234,
            "estimated_diameter_max": 27.9537436902
        },
        "miles": {
            "estimated_diameter_min": 0.0077679417,
            "estimated_diameter_max": 0.0173696457
        },
        "feet": {
            "estimated_diameter_min": 41.0147461399,
            "estimated_diameter_max": 91.7117604487
        }
    },
    "is_potentially_hazardous_asteroid": false,
    "close_approach_data": [
        {
            "close_approach_date": "2020-08-07",
            "close_approach_date_full": "2020-Aug-07 00:25",
            "epoch_date_close_approach": 1596759900000,
            "relative_velocity": {
                "kilometers_per_second": "3.5219295437",
                "kilometers_per_hour": "12678.946357258",
                "miles_per_hour": "7878.204196264"
            },
            "miss_distance": {
                "astronomical": "0.0592226646",
                "lunar": "23.0376165294",
                "kilometers": "8859584.479884402",
                "miles": "5505090.5213606676"
            },
            "orbiting_body": "Earth"
        }
    ],
    "orbital_data": {
        "orbit_id": "2",
        "orbit_determination_date": "2020-08-26 07:12:53",
        "first_observation_date": "2020-08-18",
        "last_observation_date": "2020-08-26",
        "data_arc_in_days": 8,
        "observations_used": 16,
        "orbit_uncertainty": "8",
        "minimum_orbit_intersection": ".0585303",
        "jupiter_tisserand_invariant": "4.862",
        "epoch_osculation": "2459081.5",
        "eccentricity": ".2078423070915936",
        "semi_major_axis": "1.344203133531822",
        "inclination": "4.954149453900964",
        "ascending_node_longitude": "151.4003285648402",
        "orbital_period": "569.240487711764",
        "perihelion_distance": "1.064820853058819",
        "perihelion_argument": "154.8714902253745",
        "aphelion_distance": "1.623585414004826",
        "perihelion_time": "2459059.518498878486",
        "mean_anomaly": "13.90157688107381",
        "mean_motion": ".6324216350933328",
        "equinox": "J2000",
        "orbit_class": {
            "orbit_class_type": "AMO",
            "orbit_class_description": "Near-Earth asteroid orbits similar to that of 1221 Amor",
            "orbit_class_range": "1.017 AU < q (perihelion) < 1.3 AU"
        }
    },
    "is_sentry_object": false
}